{
  "type": "FeatureCollection",
  "features": [
    {
      "type": "Feature",
      "properties": {
        "norad_id": 34420,
        "name": "COSMOS 2251 DEB",
        "group": "cosmos-2251-debris",
        "lat": 10.361221429607204,
        "lon": -71.44708380815695,
        "alt_km": 634.6851999448654,
        "timestamp": "2025-12-08T19:31:49.201582+00:00",
        "meta_object_name": "COSMOS 2251 DEB",
        "meta_object_id": "1993-036RM",
        "meta_epoch": "2025-12-08T04:19:37.169184",
        "meta_mean_motion": 14.68276125,
        "meta_eccentricity": 0.01068221,
        "meta_inclination": 74.0337,
        "meta_ra_of_asc_node": 112.7782,
        "meta_arg_of_pericenter": 234.9644,
        "meta_mean_anomaly": 188.2186,
        "meta_ephemeris_type": 0,
        "meta_classification_type": "U",
        "meta_norad_cat_id": 34420,
        "meta_element_set_no": 999,
        "meta_rev_at_epoch": 89703,
        "meta_bstar": 0.00043072855,
        "meta_mean_motion_dot": 2.674e-05,
        "meta_mean_motion_ddot": 0,
        "tle_line1": "1 34420U 93036RM  25342.18029131  .00002674  00000+0  43073-3 0  9993",
        "tle_line2": "2 34420  74.0337 112.7782 0106822 234.9644 188.2186 14.68276125897031"
      },
      "geometry": {
        "type": "Point",
        "coordinates": [
          -71.44708380815695,
          10.361221429607204
        ]
      }
    },
    {
      "type": "Feature",
      "properties": {
        "norad_id": 34425,
        "name": "COSMOS 2251 DEB",
        "group": "cosmos-2251-debris",
        "lat": -14.592975048532065,
        "lon": 57.76321390464971,
        "alt_km": 706.901958330579,
        "timestamp": "2025-12-08T19:31:49.201592+00:00",
        "meta_object_name": "COSMOS 2251 DEB",
        "meta_object_id": "1993-036RS",
        "meta_epoch": "2025-12-08T06:27:45.601920",
        "meta_mean_motion": 14.62087984,
        "meta_eccentricity": 0.00251455,
        "meta_inclination": 74.0202,
        "meta_ra_of_asc_node": 63.0847,
        "meta_arg_of_pericenter": 190.6743,
        "meta_mean_anomaly": 169.3894,
        "meta_ephemeris_type": 0,
        "meta_classification_type": "U",
        "meta_norad_cat_id": 34425,
        "meta_element_set_no": 999,
        "meta_rev_at_epoch": 88675,
        "meta_bstar": 0.0009322386,
        "meta_mean_motion_dot": 4.677e-05,
        "meta_mean_motion_ddot": 0,
        "tle_line1": "1 34425U 93036RS  25342.26927780  .00004677  00000+0  93224-3 0  9992",
        "tle_line2": "2 34425  74.0202  63.0847 0025145 190.6743 169.3894 14.62087984886753"
      },
      "geometry": {
        "type": "Point",
        "coordinates": [
          57.76321390464971,
          -14.592975048532065
        ]
      }
    },
    {
      "type": "Feature",
      "properties": {
        "norad_id": 34429,
        "name": "COSMOS 2251 DEB",
        "group": "cosmos-2251-debris",
        "lat": 13.46298330277974,
        "lon": -179.51560871150105,
        "alt_km": 444.35078189853357,
        "timestamp": "2025-12-08T19:31:49.201601+00:00",
        "meta_object_name": "COSMOS 2251 DEB",
        "meta_object_id": "1993-036RW",
        "meta_epoch": "2025-12-07T23:52:29.653824",
        "meta_mean_motion": 15.39166657,
        "meta_eccentricity": 0.00060343,
        "meta_inclination": 73.9709,
        "meta_ra_of_asc_node": 178.312,
        "meta_arg_of_pericenter": 22.8167,
        "meta_mean_anomaly": 134.9127,
        "meta_ephemeris_type": 0,
        "meta_classification_type": "U",
        "meta_norad_cat_id": 34429,
        "meta_element_set_no": 999,
        "meta_rev_at_epoch": 89375,
        "meta_bstar": 0.0048458639,
        "meta_mean_motion_dot": 0.00193147,
        "meta_mean_motion_ddot": 0,
        "tle_line1": "1 34429U 93036RW  25341.99478766  .00193147  00000+0  48459-2 0  9990",
        "tle_line2": "2 34429  73.9709 178.3120 0006034  22.8167 134.9127 15.39166657893758"
      },
      "geometry": {
        "type": "Point",
        "coordinates": [
          -179.51560871150105,
          13.46298330277974
        ]
      }
    },
    {
      "type": "Feature",
      "properties": {
        "norad_id": 34430,
        "name": "COSMOS 2251 DEB",
        "group": "cosmos-2251-debris",
        "lat": 73.13182096353306,
        "lon": 21.17422630328152,
        "alt_km": 732.8957307729288,
        "timestamp": "2025-12-08T19:31:49.201610+00:00",
        "meta_object_name": "COSMOS 2251 DEB",
        "meta_object_id": "1993-036RX",
        "meta_epoch": "2025-12-08T07:28:08.610528",
        "meta_mean_motion": 14.3961089,
        "meta_eccentricity": 0.00601376,
        "meta_inclination": 74.0522,
        "meta_ra_of_asc_node": 311.5327,
        "meta_arg_of_pericenter": 22.2528,
        "meta_mean_anomaly": 338.1215,
        "meta_ephemeris_type": 0,
        "meta_classification_type": "U",
        "meta_norad_cat_id": 34430,
        "meta_element_set_no": 999,
        "meta_rev_at_epoch": 87891,
        "meta_bstar": 0.00089279605,
        "meta_mean_motion_dot": 2.824e-05,
        "meta_mean_motion_ddot": 0,
        "tle_line1": "1 34430U 93036RX  25342.31121077  .00002824  00000+0  89280-3 0  9998",
        "tle_line2": "2 34430  74.0522 311.5327 0060137  22.2528 338.1215 14.39610890878913"
      },
      "geometry": {
        "type": "Point",
        "coordinates": [
          21.17422630328152,
          73.13182096353306
        ]
      }
    },
    {
      "type": "Feature",
      "properties": {
        "norad_id": 34431,
        "name": "COSMOS 2251 DEB",
        "group": "cosmos-2251-debris",
        "lat": 39.41586568077465,
        "lon": -11.26521687764451,
        "alt_km": 750.0921666031518,
        "timestamp": "2025-12-08T19:31:49.201619+00:00",
        "meta_object_name": "COSMOS 2251 DEB",
        "meta_object_id": "1993-036RY",
        "meta_epoch": "2025-12-08T00:23:51.379296",
        "meta_mean_motion": 14.28751166,
        "meta_eccentricity": 0.00684816,
        "meta_inclination": 74.0745,
        "meta_ra_of_asc_node": 183.749,
        "meta_arg_of_pericenter": 170.7323,
        "meta_mean_anomaly": 189.5109,
        "meta_ephemeris_type": 0,
        "meta_classification_type": "U",
        "meta_norad_cat_id": 34431,
        "meta_element_set_no": 999,
        "meta_rev_at_epoch": 87075,
        "meta_bstar": 0.00080728504,
        "meta_mean_motion_dot": 2.059e-05,
        "meta_mean_motion_ddot": 0,
        "tle_line1": "1 34431U 93036RY  25342.01656689  .00002059  00000+0  80729-3 0  9997",
        "tle_line2": "2 34431  74.0745 183.7490 0068481 170.7323 189.5109 14.28751166870757"
      },
      "geometry": {
        "type": "Point",
        "coordinates": [
          -11.26521687764451,
          39.41586568077465
        ]
      }
    },
    {
      "type": "Feature",
      "properties": {
        "norad_id": 34432,
        "name": "COSMOS 2251 DEB",
        "group": "cosmos-2251-debris",
        "lat": 29.862399299552973,
        "lon": -80.34750246665075,
        "alt_km": 784.9261728720958,
        "timestamp": "2025-12-08T19:31:49.201628+00:00",
        "meta_object_name": "COSMOS 2251 DEB",
        "meta_object_id": "1993-036RZ",
        "meta_epoch": "2025-12-07T19:26:16.992960",
        "meta_mean_motion": 14.02874646,
        "meta_eccentricity": 0.01828876,
        "meta_inclination": 73.8289,
        "meta_ra_of_asc_node": 111.0103,
        "meta_arg_of_pericenter": 194.4414,
        "meta_mean_anomaly": 287.8397,
        "meta_ephemeris_type": 0,
        "meta_classification_type": "U",
        "meta_norad_cat_id": 34432,
        "meta_element_set_no": 999,
        "meta_rev_at_epoch": 85615,
        "meta_bstar": 0.0021648833,
        "meta_mean_motion_dot": 3.863e-05,
        "meta_mean_motion_ddot": 0,
        "tle_line1": "1 34432U 93036RZ  25341.80991890  .00003863  00000+0  21649-2 0  9999",
        "tle_line2": "2 34432  73.8289 111.0103 0182887 194.4414 287.8397 14.02874646856154"
      },
      "geometry": {
        "type": "Point",
        "coordinates": [
          -80.34750246665075,
          29.862399299552973
        ]
      }
    },
    {
      "type": "Feature",
      "properties": {
        "norad_id": 34433,
        "name": "COSMOS 2251 DEB",
        "group": "cosmos-2251-debris",
        "lat": 34.012980450772055,
        "lon": 173.05068269889262,
        "alt_km": 854.9774786019634,
        "timestamp": "2025-12-08T19:31:49.201637+00:00",
        "meta_object_name": "COSMOS 2251 DEB",
        "meta_object_id": "1993-036SA",
        "meta_epoch": "2025-12-07T22:58:15.758976",
        "meta_mean_motion": 14.12820641,
        "meta_eccentricity": 0.0151839,
        "meta_inclination": 74.0112,
        "meta_ra_of_asc_node": 163.4108,
        "meta_arg_of_pericenter": 302.4338,
        "meta_mean_anomaly": 56.2192,
        "meta_ephemeris_type": 0,
        "meta_classification_type": "U",
        "meta_norad_cat_id": 34433,
        "meta_element_set_no": 999,
        "meta_rev_at_epoch": 85882,
        "meta_bstar": 0.0015972797,
        "meta_mean_motion_dot": 3.287e-05,
        "meta_mean_motion_ddot": 0,
        "tle_line1": "1 34433U 93036SA  25341.95712684  .00003287  00000+0  15973-2 0  9991",
        "tle_line2": "2 34433  74.0112 163.4108 0151839 302.4338  56.2192 14.12820641858822"
      },
      "geometry": {
        "type": "Point",
        "coordinates": [
          173.05068269889262,
          34.012980450772055
        ]
      }
    }
  ]
}